[
    {
        "Altitude(m)": 622205.846960128,
        "Argument of Periapsis(deg)": 0.0,
        "Eccentricity": 0.0,
        "Inclination(deg)": 60.0,
        "Latitude(deg)": -52.16237875080527,
        "Longitude(deg)": 37.70052637684403,
        "Mean Anomaly(deg)": -114.54550000000008,
        "RAAN(deg)": 270.0,
        "Satellite Name": "Test1 1203",
        "Satellite Number": 1203,
        "Semi-Major Axis(m)": 6980739.136638005,
        "Time(s)": 0
    },
    {
        "Altitude(m)": 622344.7530630971,
        "Argument of Periapsis(deg)": 0.00010418945913296404,
        "Eccentricity": 0.0,
        "Inclination(deg)": 60.0,
        "Latitude(deg)": -52.51995695122196,
        "Longitude(deg)": 38.481739440334344,
        "Mean Anomaly(deg)": -113.9253938545382,
        "RAAN(deg)": 269.99957995086027,
        "Satellite Name": "Test1 1203",
        "Satellite Number": 1203,
        "Semi-Major Axis(m)": 6980739.136638005,
        "Time(s)": 10
    }
]